[
    {
        "Altitude(m)": 568901.9829241983,
        "Argument of Periapsis(deg)": 0.0,
        "Eccentricity": 0.0,
        "Inclination(deg)": 97.0,
        "Latitude(deg)": -12.515621226394668,
        "Longitude(deg)": 51.58404730424774,
        "Mean Anomaly(deg)": -12.413799999999927,
        "RAAN(deg)": 150.0,
        "Satellite Name": "Starlink Shell 3 1930",
        "Satellite Number": 1930,
        "Semi-Major Axis(m)": 6938478.169268562,
        "Time(s)": 0
    },
    {
        "Altitude(m)": 568741.3960317152,
        "Argument of Periapsis(deg)": -0.0003965466804030246,
        "Eccentricity": 0.0,
        "Inclination(deg)": 97.0,
        "Latitude(deg)": -11.892083998921128,
        "Longitude(deg)": 51.46263713130184,
        "Mean Anomaly(deg)": -11.788323802294931,
        "RAAN(deg)": 150.00010433427403,
        "Satellite Name": "Starlink Shell 3 1930",
        "Satellite Number": 1930,
        "Semi-Major Axis(m)": 6938478.169268562,
        "Time(s)": 10
    },
    {
        "Altitude(m)": 568584.5457280704,
        "Argument of Periapsis(deg)": -0.0007930933608060492,
        "Eccentricity": 0.0,
        "Inclination(deg)": 97.0,
        "Latitude(deg)": -11.268475274188145,
        "Longitude(deg)": 51.34158538202981,
        "Mean Anomaly(deg)": -11.16284760458981,
        "RAAN(deg)": 150.00020866854803,
        "Satellite Name": "Starlink Shell 3 1930",
        "Satellite Number": 1930,
        "Semi-Major Axis(m)": 6938478.169268562,
        "Time(s)": 20
    },
    {
        "Altitude(m)": 568431.4791435212,
        "Argument of Periapsis(deg)": -0.001189640041209074,
        "Eccentricity": 0.0,
        "Inclination(deg)": 97.0,
        "Latitude(deg)": -10.644798032411778,
        "Longitude(deg)": 51.22087102014198,
        "Mean Anomaly(deg)": -10.537371406884816,
        "RAAN(deg)": 150.00031300282205,
        "Satellite Name": "Starlink Shell 3 1930",
        "Satellite Number": 1930,
        "Semi-Major Axis(m)": 6938478.169268562,
        "Time(s)": 30
    },
    {
        "Altitude(m)": 568282.2415283095,
        "Argument of Periapsis(deg)": -0.0015861867216120985,
        "Eccentricity": 0.0,
        "Inclination(deg)": 97.0,
        "Latitude(deg)": -10.021055252135637,
        "Longitude(deg)": 51.100473844943565,
        "Mean Anomaly(deg)": -9.911895209179795,
        "RAAN(deg)": 150.00041733709605,
        "Satellite Name": "Starlink Shell 3 1930",
        "Satellite Number": 1930,
        "Semi-Major Axis(m)": 6938478.169268562,
        "Time(s)": 40
    },
    {
        "Altitude(m)": 568136.8762330754,
        "Argument of Periapsis(deg)": -0.0019827334020151234,
        "Eccentricity": 0.0,
        "Inclination(deg)": 97.0,
        "Latitude(deg)": -9.397249910730105,
        "Longitude(deg)": 50.98037346071631,
        "Mean Anomaly(deg)": -9.286419011474699,
        "RAAN(deg)": 150.00052167137008,
        "Satellite Name": "Starlink Shell 3 1930",
        "Satellite Number": 1930,
        "Semi-Major Axis(m)": 6938478.169268562,
        "Time(s)": 50
    },
    {
        "Altitude(m)": 567995.4246902723,
        "Argument of Periapsis(deg)": -0.002379280082418148,
        "Eccentricity": 0.0,
        "Inclination(deg)": 97.0,
        "Latitude(deg)": -8.773384984839803,
        "Longitude(deg)": 50.860549759619595,
        "Mean Anomaly(deg)": -8.660942813769678,
        "RAAN(deg)": 150.00062600564405,
        "Satellite Name": "Starlink Shell 3 1930",
        "Satellite Number": 1930,
        "Semi-Major Axis(m)": 6938478.169268562,
        "Time(s)": 60
    },
    {
        "Altitude(m)": 567857.9263964714,
        "Argument of Periapsis(deg)": -0.002775826762821173,
        "Eccentricity": 0.0,
        "Inclination(deg)": 97.0,
        "Latitude(deg)": -8.149463450784182,
        "Longitude(deg)": 50.74098340518896,
        "Mean Anomaly(deg)": -8.035466616064555,
        "RAAN(deg)": 150.00073033991808,
        "Satellite Name": "Starlink Shell 3 1930",
        "Satellite Number": 1930,
        "Semi-Major Axis(m)": 6938478.169268562,
        "Time(s)": 70
    },
    {
        "Altitude(m)": 567724.4188957022,
        "Argument of Periapsis(deg)": -0.003172373443224197,
        "Eccentricity": 0.0,
        "Inclination(deg)": 97.0,
        "Latitude(deg)": -7.525488284918417,
        "Longitude(deg)": 50.62165480351264,
        "Mean Anomaly(deg)": -7.409990418359561,
        "RAAN(deg)": 150.00083467419208,
        "Satellite Name": "Starlink Shell 3 1930",
        "Satellite Number": 1930,
        "Semi-Major Axis(m)": 6938478.169268562,
        "Time(s)": 80
    },
    {
        "Altitude(m)": 567594.9377637602,
        "Argument of Periapsis(deg)": -0.0035689201236272223,
        "Eccentricity": 0.0,
        "Inclination(deg)": 97.0,
        "Latitude(deg)": -6.901462463951715,
        "Longitude(deg)": 50.5025445877856,
        "Mean Anomaly(deg)": -6.784514220654566,
        "RAAN(deg)": 150.00093900846608,
        "Satellite Name": "Starlink Shell 3 1930",
        "Satellite Number": 1930,
        "Semi-Major Axis(m)": 6938478.169268562,
        "Time(s)": 90
    },
    {
        "Altitude(m)": 567469.516593485,
        "Argument of Periapsis(deg)": -0.003965466804030247,
        "Eccentricity": 0.0,
        "Inclination(deg)": 97.0,
        "Latitude(deg)": -6.27738896523025,
        "Longitude(deg)": 50.383634103327296,
        "Mean Anomaly(deg)": -6.159038022949545,
        "RAAN(deg)": 150.0010433427401,
        "Satellite Name": "Starlink Shell 3 1930",
        "Satellite Number": 1930,
        "Semi-Major Axis(m)": 6938478.169268562,
        "Time(s)": 100
    },
    {
        "Altitude(m)": 567348.1869810865,
        "Argument of Periapsis(deg)": -0.004362013484433271,
        "Eccentricity": 0.0,
        "Inclination(deg)": 97.0,
        "Latitude(deg)": -5.6532707669883395,
        "Longitude(deg)": 50.26490438014554,
        "Mean Anomaly(deg)": -5.5335618252444485,
        "RAAN(deg)": 150.0011476770141,
        "Satellite Name": "Starlink Shell 3 1930",
        "Satellite Number": 1930,
        "Semi-Major Axis(m)": 6938478.169268562,
        "Time(s)": 110
    },
    {
        "Altitude(m)": 567230.9785134189,
        "Argument of Periapsis(deg)": -0.004758560164836296,
        "Eccentricity": 0.0,
        "Inclination(deg)": 97.0,
        "Latitude(deg)": -5.029110848568004,
        "Longitude(deg)": 50.146336618755,
        "Mean Anomaly(deg)": -4.908085627539428,
        "RAAN(deg)": 150.0012520112881,
        "Satellite Name": "Starlink Shell 3 1930",
        "Satellite Number": 1930,
        "Semi-Major Axis(m)": 6938478.169268562,
        "Time(s)": 120
    },
    {
        "Altitude(m)": 567117.9187563246,
        "Argument of Periapsis(deg)": -0.005155106845239321,
        "Eccentricity": 0.0,
        "Inclination(deg)": 97.0,
        "Latitude(deg)": -4.40491219061013,
        "Longitude(deg)": 50.02791267633651,
        "Mean Anomaly(deg)": -4.282609429834332,
        "RAAN(deg)": 150.00135634556213,
        "Satellite Name": "Starlink Shell 3 1930",
        "Satellite Number": 1930,
        "Semi-Major Axis(m)": 6938478.169268562,
        "Time(s)": 130
    },
    {
        "Altitude(m)": 567009.0332439973,
        "Argument of Periapsis(deg)": -0.005551653525642346,
        "Eccentricity": 0.0,
        "Inclination(deg)": 97.0,
        "Latitude(deg)": -3.7806777752247522,
        "Longitude(deg)": 49.909614040327895,
        "Mean Anomaly(deg)": -3.6571332321293366,
        "RAAN(deg)": 150.00146067983613,
        "Satellite Name": "Starlink Shell 3 1930",
        "Satellite Number": 1930,
        "Semi-Major Axis(m)": 6938478.169268562,
        "Time(s)": 140
    },
    {
        "Altitude(m)": 566904.3454693304,
        "Argument of Periapsis(deg)": -0.005948200206045371,
        "Eccentricity": 0.0,
        "Inclination(deg)": 97.0,
        "Latitude(deg)": -3.156410586136151,
        "Longitude(deg)": 49.791422315154485,
        "Mean Anomaly(deg)": -3.0316570344243163,
        "RAAN(deg)": 150.00156501411016,
        "Satellite Name": "Starlink Shell 3 1930",
        "Satellite Number": 1930,
        "Semi-Major Axis(m)": 6938478.169268562,
        "Time(s)": 150
    },
    {
        "Altitude(m)": 566803.8768753571,
        "Argument of Periapsis(deg)": -0.006344746886448394,
        "Eccentricity": 0.0,
        "Inclination(deg)": 97.0,
        "Latitude(deg)": -2.5321136088101546,
        "Longitude(deg)": 49.67331970919181,
        "Mean Anomaly(deg)": -2.406180836719321,
        "RAAN(deg)": 150.00166934838416,
        "Satellite Name": "Starlink Shell 3 1930",
        "Satellite Number": 1930,
        "Semi-Major Axis(m)": 6938478.169268562,
        "Time(s)": 160
    },
    {
        "Altitude(m)": 566707.6468476993,
        "Argument of Periapsis(deg)": -0.00674129356685142,
        "Eccentricity": 0.0,
        "Inclination(deg)": 97.0,
        "Latitude(deg)": -1.9077898305667107,
        "Longitude(deg)": 49.55528800905109,
        "Mean Anomaly(deg)": -1.780704639014224,
        "RAAN(deg)": 150.00177368265818,
        "Satellite Name": "Starlink Shell 3 1930",
        "Satellite Number": 1930,
        "Semi-Major Axis(m)": 6938478.169268562,
        "Time(s)": 170
    },
    {
        "Altitude(m)": 566615.6727080722,
        "Argument of Periapsis(deg)": -0.007137840247254445,
        "Eccentricity": 0.0,
        "Inclination(deg)": 97.0,
        "Latitude(deg)": -1.2834422406774373,
        "Longitude(deg)": 49.43730906690061,
        "Mean Anomaly(deg)": -1.1552284413091785,
        "RAAN(deg)": 150.00187801693215,
        "Satellite Name": "Starlink Shell 3 1930",
        "Satellite Number": 1930,
        "Semi-Major Axis(m)": 6938478.169268562,
        "Time(s)": 180
    }
]